OBJECT_NAME,OBJECT_ID,EPOCH,MEAN_MOTION,ECCENTRICITY,INCLINATION,RA_OF_ASC_NODE,ARG_OF_PERICENTER,MEAN_ANOMALY,EPHEMERIS_TYPE,CLASSIFICATION_TYPE,NORAD_CAT_ID,ELEMENT_SET_NO,REV_AT_EPOCH,BSTAR,MEAN_MOTION_DOT,MEAN_MOTION_DDOT
INTELSAT 23 (IS-23),2012-057A,2026-07-16T04:30:57.634848,1.00268303,.00004665,0.0178,30.0313,201.2149,77.5234,0,U,38867,999,5024,0,-.295E-5,0
FM-6,2013-058A,2026-07-13T23:10:32.594592,1.00270909,.00013903,0.0142,33.4803,144.8411,344.7900,0,U,39360,999,4634,0,-.21E-6,0
INTELSAT 30 (IS-30),2014-062A,2026-07-15T21:28:23.363040,1.00269522,.0001415,0.0195,54.0858,333.0622,133.6241,0,U,40271,999,708,0,-.161E-5,0
DIRECTV 14,2014-078B,2026-07-15T12:14:38.599872,1.00267237,.000069,0.0110,40.7880,304.5925,32.3918,0,U,40333,999,4232,0,-.135E-5,0
DIRECTV 15,2015-026A,2026-07-14T16:20:59.066880,1.00271323,.00000994,0.0176,71.4979,242.5429,120.8693,0,U,40663,999,4073,0,-.111E-5,0
SKY MEXICO-1,2015-026B,2026-07-16T06:06:12.924864,1.00269873,.00024331,0.0159,51.5704,85.0473,170.2100,0,U,40664,999,4074,0,-.245E-5,0
INTELSAT 34 (IS-34),2015-039A,2026-07-16T06:12:49.791168,1.00269479,.00003934,0.0104,16.6362,353.3737,321.7900,0,U,40874,999,3992,0,-.296E-5,0
INTELSAT 31 (IS-31),2016-035A,2026-07-16T07:16:46.104960,1.00270083,.00011315,0.0122,300.6118,355.1442,12.5170,0,U,41581,999,3697,0,-.161E-5,0
INTELSAT 36 (IS-36),2016-053A,2026-07-16T04:12:21.761568,1.00270573,.00023573,0.0127,37.8215,301.7561,85.9947,0,U,41747,999,3624,0,-.34E-6,0
INTELSAT 32E (IS-32E),2017-007B,2026-07-15T16:34:59.095200,1.00266215,.00002708,0.0237,56.8760,287.4334,154.7925,0,U,41945,999,3451,0,0,0
INTELSAT 35E (IS-35E),2017-041A,2026-07-15T13:14:38.726304,1.00266637,.0001683,0.0261,63.1048,46.6502,347.7991,0,U,42818,999,3310,0,0,0
INTELSAT 37E (IS-37E),2017-059A,2026-07-16T06:23:33.763200,1.00271998,.00024886,0.0163,55.7138,63.5268,252.7295,0,U,42950,999,3235,0,-.151E-5,0
AZERSPACE 2 (IS-38),2018-074A,2026-07-15T20:25:42.166272,1.00273206,.00016179,0.0246,58.5053,67.4827,159.2539,0,U,43632,999,2873,0,0,0
HORIZONS-3E,2018-074B,2026-07-13T15:21:38.465856,1.00270118,.00009408,0.0498,224.9289,53.6947,52.2963,0,U,43633,999,2860,0,-.35E-6,0
AT&T T-16,2019-034A,2026-07-14T19:46:46.069248,1.00268430,.00006162,0.0157,70.7114,248.2150,169.5701,0,U,44333,999,2591,0,-.123E-5,0
INTELSAT 39 (IS-39),2019-049B,2026-07-16T05:03:39.500640,1.00269278,.00009275,0.0247,59.7034,281.3507,90.8594,0,U,44476,999,2541,0,0,0
GALAXY 30 (G-30),2020-056C,2026-07-15T23:02:28.714848,1.00272066,.00020097,0.0128,68.4269,47.3472,38.6367,0,U,46114,999,2158,0,.26E-6,0
GALAXY 33 (G-33),2022-128A,2026-07-15T22:59:58.954272,1.00272587,.00018137,0.0111,52.8487,67.7217,25.2247,0,U,54026,999,1403,0,.68E-6,0
GALAXY 34 (G-34),2022-128B,2026-07-16T03:40:33.200256,1.00273219,.00015183,0.0115,44.1059,105.6630,70.3609,0,U,54027,999,1420,0,.48E-6,0
GALAXY 31 (G-31),2022-153A,2026-07-16T05:54:08.136000,1.00271495,.00010262,0.0143,89.4794,30.4985,141.6154,0,U,54243,999,742,0,.3E-7,0
GALAXY 32 (G-32),2022-153B,2026-07-16T07:17:59.442144,1.00272471,.00013487,0.0086,46.8581,357.5455,268.2247,0,U,54244,999,1343,0,-.185E-5,0
GALAXY 35 (G-35),2022-170A,2026-07-16T07:17:26.236896,1.00272279,.00018072,0.0157,72.5557,43.8246,193.9981,0,U,54741,999,1318,0,-.173E-5,0
GALAXY 36 (G-36),2022-170B,2026-07-15T14:39:27.997344,1.00270281,.00023966,0.0054,142.8857,316.1422,325.2844,0,U,54742,999,1305,0,-.195E-5,0
GALAXY 37 (G-37),2023-112A,2026-07-16T04:09:46.029888,1.00271297,.00018232,0.0184,49.9091,68.6969,110.8601,0,U,57493,999,1083,0,0,0
