INTELSAT 23 (IS-23)     
1 38867U 12057A   26197.18816707 -.00000295  00000+0  00000+0 0  9995
2 38867   0.0178  30.0313 0000466 201.2149  77.5234  1.00268303 50247
FM-6                    
1 39360U 13058A   26194.96565503 -.00000021  00000+0  00000+0 0  9991
2 39360   0.0142  33.4803 0001390 144.8411 344.7900  1.00270909 46349
INTELSAT 30 (IS-30)     
1 40271U 14062A   26196.89471485 -.00000161  00000+0  00000+0 0  9994
2 40271   0.0195  54.0858 0001415 333.0622 133.6241  1.00269522  7083
DIRECTV 14              
1 40333U 14078B   26196.51016898 -.00000135  00000+0  00000+0 0  9993
2 40333   0.0110  40.7880 0000690 304.5925  32.3918  1.00267237 42322
DIRECTV 15              
1 40663U 15026A   26195.68123920 -.00000111  00000+0  00000+0 0  9999
2 40663   0.0176  71.4979 0000099 242.5429 120.8693  1.00271323 40730
SKY MEXICO-1            
1 40664U 15026B   26197.25431626 -.00000245  00000+0  00000+0 0  9998
2 40664   0.0159  51.5704 0002433  85.0473 170.2100  1.00269873 40740
INTELSAT 34 (IS-34)     
1 40874U 15039A   26197.25890962 -.00000296  00000+0  00000+0 0  9993
2 40874   0.0104  16.6362 0000393 353.3737 321.7900  1.00269479 39923
INTELSAT 31 (IS-31)     
1 41581U 16035A   26197.30331140 -.00000161  00000+0  00000+0 0  9991
2 41581   0.0122 300.6118 0001131 355.1442  12.5170  1.00270083 36977
INTELSAT 36 (IS-36)     
1 41747U 16053A   26197.17525187 -.00000034  00000+0  00000+0 0  9995
2 41747   0.0127  37.8215 0002357 301.7561  85.9947  1.00270573 36243
INTELSAT 32E (IS-32E)   
1 41945U 17007B   26196.69096175  .00000000  00000+0  00000+0 0  9993
2 41945   0.0237  56.8760 0000270 287.4334 154.7925  1.00266215 34518
INTELSAT 35E (IS-35E)   
1 42818U 17041A   26196.55183711  .00000000  00000+0  00000+0 0  9999
2 42818   0.0261  63.1048 0001683  46.6502 347.7991  1.00266637 33105
INTELSAT 37E (IS-37E)   
1 42950U 17059A   26197.26636300 -.00000151  00000+0  00000+0 0  9999
2 42950   0.0163  55.7138 0002488  63.5268 252.7295  1.00271998 32355
AZERSPACE 2 (IS-38)     
1 43632U 18074A   26196.85118248  .00000000  00000+0  00000+0 0  9997
2 43632   0.0246  58.5053 0001617  67.4827 159.2539  1.00273206 28732
HORIZONS-3E             
1 43633U 18074B   26194.64002854 -.00000035  00000+0  00000+0 0  9997
2 43633   0.0498 224.9289 0000940  53.6947  52.2963  1.00270118 28608
AT&T T-16               
1 44333U 19034A   26195.82414432 -.00000123  00000+0  00000+0 0  9990
2 44333   0.0157  70.7114 0000616 248.2150 169.5701  1.00268430 25917
INTELSAT 39 (IS-39)     
1 44476U 19049B   26197.21087385  .00000000  00000+0  00000+0 0  9995
2 44476   0.0247  59.7034 0000927 281.3507  90.8594  1.00269278 25414
GALAXY 30 (G-30)        
1 46114U 20056C   26196.96005457  .00000026  00000+0  00000+0 0  9995
2 46114   0.0128  68.4269 0002009  47.3472  38.6367  1.00272066 21585
GALAXY 33 (G-33)        
1 54026U 22128A   26196.95832123  .00000068  00000+0  00000+0 0  9991
2 54026   0.0111  52.8487 0001813  67.7217  25.2247  1.00272587 14031
GALAXY 34 (G-34)        
1 54027U 22128B   26197.15316204  .00000048  00000+0  00000+0 0  9990
2 54027   0.0115  44.1059 0001518 105.6630  70.3609  1.00273219 14203
GALAXY 31 (G-31)        
1 54243U 22153A   26197.24592750  .00000003  00000+0  00000+0 0  9991
2 54243   0.0143  89.4794 0001026  30.4985 141.6154  1.00271495  7421
GALAXY 32 (G-32)        
1 54244U 22153B   26197.30416021 -.00000185  00000+0  00000+0 0  9997
2 54244   0.0086  46.8581 0001348 357.5455 268.2247  1.00272471 13433
GALAXY 35 (G-35)        
1 54741U 22170A   26197.30377589 -.00000173  00000+0  00000+0 0  9990
2 54741   0.0157  72.5557 0001807  43.8246 193.9981  1.00272279 13183
GALAXY 36 (G-36)        
1 54742U 22170B   26196.61074071 -.00000195  00000+0  00000+0 0  9998
2 54742   0.0054 142.8857 0002396 316.1422 325.2844  1.00270281 13055
GALAXY 37 (G-37)        
1 57493U 23112A   26197.17344942  .00000000  00000+0  00000+0 0  9994
2 57493   0.0184  49.9091 0001823  68.6969 110.8601  1.00271297 10831
